IRIDIUM 921             
1 24873U 97034E   24258.42878018  .00108975  00000+0  20586-2 0  9998
2 24873  86.3740 243.6570 0003304 141.6104 218.5390 15.48036933488941
IRIDIUM 26              
1 24903U 97043A   24258.91046757  .00001943  00000+0  65490-3 0  9994
2 24903  86.3957 226.0939 0002243  87.3088 272.8366 14.36587869417210
IRIDIUM 22              
1 24907U 97043E   24258.89638851  .00001756  00000+0  60447-3 0  9996
2 24907  86.3957 229.4061 0002401  88.8135 271.3337 14.35461088417273
DUMMY MASS 1            
1 24925U 97048A   24258.73518847  .00001692  00000+0  18855-3 0  9991
2 24925  86.3289 262.5919 0008636  55.3331 304.8706 14.86418953464200
DUMMY MASS 2            
1 24926U 97048B   24258.51708817  .00001667  00000+0  18675-3 0  9998
2 24926  86.3288 264.2527 0009683  63.6864 296.5354 14.86174841463952
IRIDIUM 29              
1 24944U 97051A   24258.94081701  .00001673  00000+0  57073-3 0  9997
2 24944  86.3899 259.2547 0002530  89.7968 270.3518 14.35906053413762
IRIDIUM 33              
1 24946U 97051C   24258.91351431  .00001105  00000+0  38523-3 0  9995
2 24946  86.3814 258.5126 0005748 251.7292 108.3279 14.34506132413274
IRIDIUM 28              
1 24948U 97051E   24258.74583910  .00001845  00000+0  61800-3 0  9992
2 24948  86.3907 257.0068 0001875  91.1689 268.9723 14.36861369414288
